[{"OBJECT_NAME":"STARLINK-32923","OBJECT_ID":"2025-037W","EPOCH":"2026-03-09T22:39:33.205248","MEAN_MOTION":14.98352474,"ECCENTRICITY":0.00028109,"INCLINATION":70.0035,"RA_OF_ASC_NODE":353.6756,"ARG_OF_PERICENTER":267.795,"MEAN_ANOMALY":92.2888,"EPHEMERIS_TYPE":0,"CLASSIFICATION_TYPE":"U","NORAD_CAT_ID":63097,"ELEMENT_SET_NO":999,"REV_AT_EPOCH":5864,"BSTAR":0.00026772695,"MEAN_MOTION_DOT":3.105e-5,"MEAN_MOTION_DDOT":0},{"OBJECT_NAME":"COSMOS 2251 DEB","OBJECT_ID":"1993-036ZW","EPOCH":"2026-03-09T08:08:26.165472","MEAN_MOTION":15.02749495,"ECCENTRICITY":0.00499096,"INCLINATION":74.0135,"RA_OF_ASC_NODE":183.9715,"ARG_OF_PERICENTER":290.3808,"MEAN_ANOMALY":69.2023,"EPHEMERIS_TYPE":0,"CLASSIFICATION_TYPE":"U","NORAD_CAT_ID":34752,"ELEMENT_SET_NO":999,"REV_AT_EPOCH":91149,"BSTAR":0.001245658,"MEAN_MOTION_DOT":0.00017109,"MEAN_MOTION_DDOT":0}]
